{
  "type": "FeatureCollection",
  "features": [
    {
      "type": "Feature",
      "properties": {
        "norad_id": 55973,
        "name": "TIANMU-1 03",
        "group": "weather",
        "lat": 72.61082711443252,
        "lon": -8.724450315541803,
        "alt_km": 434.3609055011393,
        "timestamp": "2025-12-09T18:55:16.881639+00:00",
        "meta_object_name": "TIANMU-1 03",
        "meta_object_id": "2023-039A",
        "meta_epoch": "2025-12-09T13:47:19.065408",
        "meta_mean_motion": 15.40777845,
        "meta_eccentricity": 0.00044964,
        "meta_inclination": 97.5112,
        "meta_ra_of_asc_node": 146.1381,
        "meta_arg_of_pericenter": 69.9606,
        "meta_mean_anomaly": 290.2123,
        "meta_ephemeris_type": 0,
        "meta_classification_type": "U",
        "meta_norad_cat_id": 55973,
        "meta_element_set_no": 999,
        "meta_rev_at_epoch": 15157,
        "meta_bstar": 0.00050826743,
        "meta_mean_motion_dot": 0.00020754,
        "meta_mean_motion_ddot": 0,
        "tle_line1": "1 55973U 23039A   25343.57452622  .00020754  00000+0  50827-3 0  9998",
        "tle_line2": "2 55973  97.5112 146.1381 0004496  69.9606 290.2123 15.40777845151575"
      },
      "geometry": {
        "type": "Point",
        "coordinates": [
          -8.724450315541803,
          72.61082711443252
        ]
      }
    },
    {
      "type": "Feature",
      "properties": {
        "norad_id": 55974,
        "name": "TIANMU-1 04",
        "group": "weather",
        "lat": -35.84584905064142,
        "lon": -39.914778188560845,
        "alt_km": 452.2910443005485,
        "timestamp": "2025-12-09T18:55:16.881650+00:00",
        "meta_object_name": "TIANMU-1 04",
        "meta_object_id": "2023-039B",
        "meta_epoch": "2025-12-09T14:52:12.675360",
        "meta_mean_motion": 15.41113803,
        "meta_eccentricity": 0.00051753,
        "meta_inclination": 97.5044,
        "meta_ra_of_asc_node": 145.3767,
        "meta_arg_of_pericenter": 65.364,
        "meta_mean_anomaly": 294.8145,
        "meta_ephemeris_type": 0,
        "meta_classification_type": "U",
        "meta_norad_cat_id": 55974,
        "meta_element_set_no": 999,
        "meta_rev_at_epoch": 15158,
        "meta_bstar": 0.0005068314,
        "meta_mean_motion_dot": 0.0002093,
        "meta_mean_motion_ddot": 0,
        "tle_line1": "1 55974U 23039B   25343.61959115  .00020930  00000+0  50683-3 0  9999",
        "tle_line2": "2 55974  97.5044 145.3767 0005175  65.3640 294.8145 15.41113803151586"
      },
      "geometry": {
        "type": "Point",
        "coordinates": [
          -39.914778188560845,
          -35.84584905064142
        ]
      }
    },
    {
      "type": "Feature",
      "properties": {
        "norad_id": 55975,
        "name": "TIANMU-1 05",
        "group": "weather",
        "lat": -70.56965292591892,
        "lon": -55.91653448949382,
        "alt_km": 454.11550082225403,
        "timestamp": "2025-12-09T18:55:16.881660+00:00",
        "meta_object_name": "TIANMU-1 05",
        "meta_object_id": "2023-039C",
        "meta_epoch": "2025-12-09T14:42:49.388832",
        "meta_mean_motion": 15.40736895,
        "meta_eccentricity": 0.00043735,
        "meta_inclination": 97.5091,
        "meta_ra_of_asc_node": 145.8622,
        "meta_arg_of_pericenter": 86.5621,
        "meta_mean_anomaly": 273.6125,
        "meta_ephemeris_type": 0,
        "meta_classification_type": "U",
        "meta_norad_cat_id": 55975,
        "meta_element_set_no": 999,
        "meta_rev_at_epoch": 15156,
        "meta_bstar": 0.00050481475,
        "meta_mean_motion_dot": 0.00020584,
        "meta_mean_motion_ddot": 0,
        "tle_line1": "1 55975U 23039C   25343.61307163  .00020584  00000+0  50481-3 0  9991",
        "tle_line2": "2 55975  97.5091 145.8622 0004373  86.5621 273.6125 15.40736895151569"
      },
      "geometry": {
        "type": "Point",
        "coordinates": [
          -55.91653448949382,
          -70.56965292591892
        ]
      }
    },
    {
      "type": "Feature",
      "properties": {
        "norad_id": 55976,
        "name": "TIANMU-1 06",
        "group": "weather",
        "lat": -23.406901707216345,
        "lon": -36.76890555867028,
        "alt_km": 449.92288671381084,
        "timestamp": "2025-12-09T18:55:16.881670+00:00",
        "meta_object_name": "TIANMU-1 06",
        "meta_object_id": "2023-039D",
        "meta_epoch": "2025-12-09T14:55:29.696736",
        "meta_mean_motion": 15.41166284,
        "meta_eccentricity": 0.00047019,
        "meta_inclination": 97.5102,
        "meta_ra_of_asc_node": 146.3338,
        "meta_arg_of_pericenter": 82.125,
        "meta_mean_anomaly": 278.053,
        "meta_ephemeris_type": 0,
        "meta_classification_type": "U",
        "meta_norad_cat_id": 55976,
        "meta_element_set_no": 999,
        "meta_rev_at_epoch": 15158,
        "meta_bstar": 0.00050481489,
        "meta_mean_motion_dot": 0.0002088,
        "meta_mean_motion_ddot": 0,
        "tle_line1": "1 55976U 23039D   25343.62187149  .00020880  00000+0  50481-3 0  9992",
        "tle_line2": "2 55976  97.5102 146.3338 0004701  82.1250 278.0530 15.41166284151589"
      },
      "geometry": {
        "type": "Point",
        "coordinates": [
          -36.76890555867028,
          -23.406901707216345
        ]
      }
    },
    {
      "type": "Feature",
      "properties": {
        "norad_id": 56232,
        "name": "FENGYUN 3G",
        "group": "weather",
        "lat": 36.50780839923947,
        "lon": 24.24340120705835,
        "alt_km": 395.6080333356995,
        "timestamp": "2025-12-09T18:55:16.881681+00:00",
        "meta_object_name": "FENGYUN 3G",
        "meta_object_id": "2023-055A",
        "meta_epoch": "2025-12-09T10:38:58.874208",
        "meta_mean_motion": 15.53340632,
        "meta_eccentricity": 0.00092702,
        "meta_inclination": 49.9935,
        "meta_ra_of_asc_node": 244.4601,
        "meta_arg_of_pericenter": 132.8049,
        "meta_mean_anomaly": 227.3699,
        "meta_ephemeris_type": 0,
        "meta_classification_type": "U",
        "meta_norad_cat_id": 56232,
        "meta_element_set_no": 999,
        "meta_rev_at_epoch": 15051,
        "meta_bstar": 0.00062055096,
        "meta_mean_motion_dot": 0.00039768,
        "meta_mean_motion_ddot": 0,
        "tle_line1": "1 56232U 23055A   25343.44373697  .00039768  00000+0  62055-3 0  9996",
        "tle_line2": "2 56232  49.9935 244.4601 0009270 132.8049 227.3699 15.53340632150517"
      },
      "geometry": {
        "type": "Point",
        "coordinates": [
          24.24340120705835,
          36.50780839923947
        ]
      }
    },
    {
      "type": "Feature",
      "properties": {
        "norad_id": 57166,
        "name": "METEOR-M2 3",
        "group": "weather",
        "lat": -64.37416709741181,
        "lon": -161.09716823646622,
        "alt_km": 820.8914951833285,
        "timestamp": "2025-12-09T18:55:16.881691+00:00",
        "meta_object_name": "METEOR-M2 3",
        "meta_object_id": "2023-091A",
        "meta_epoch": "2025-12-09T14:23:53.228832",
        "meta_mean_motion": 14.24025591,
        "meta_eccentricity": 0.000409,
        "meta_inclination": 98.6382,
        "meta_ra_of_asc_node": 37.194,
        "meta_arg_of_pericenter": 17.4664,
        "meta_mean_anomaly": 342.6655,
        "meta_ephemeris_type": 0,
        "meta_classification_type": "U",
        "meta_norad_cat_id": 57166,
        "meta_element_set_no": 999,
        "meta_rev_at_epoch": 12753,
        "meta_bstar": 4.1688886e-05,
        "meta_mean_motion_dot": 5.2e-07,
        "meta_mean_motion_ddot": 0,
        "tle_line1": "1 57166U 23091A   25343.59992163  .00000052  00000+0  41689-4 0  9999",
        "tle_line2": "2 57166  98.6382  37.1940 0004090  17.4664 342.6655 14.24025591127530"
      },
      "geometry": {
        "type": "Point",
        "coordinates": [
          -161.09716823646622,
          -64.37416709741181
        ]
      }
    },
    {
      "type": "Feature",
      "properties": {
        "norad_id": 57399,
        "name": "TIANMU-1 07",
        "group": "weather",
        "lat": 48.93182775693488,
        "lon": 25.257837832031964,
        "alt_km": 474.4252068409596,
        "timestamp": "2025-12-09T18:55:16.881702+00:00",
        "meta_object_name": "TIANMU-1 07",
        "meta_object_id": "2023-101A",
        "meta_epoch": "2025-12-09T13:59:26.223360",
        "meta_mean_motion": 15.27999542,
        "meta_eccentricity": 0.00056427,
        "meta_inclination": 97.2877,
        "meta_ra_of_asc_node": 33.5022,
        "meta_arg_of_pericenter": 89.5502,
        "meta_mean_anomaly": 270.6384,
        "meta_ephemeris_type": 0,
        "meta_classification_type": "U",
        "meta_norad_cat_id": 57399,
        "meta_element_set_no": 999,
        "meta_rev_at_epoch": 13267,
        "meta_bstar": 0.00038854699,
        "meta_mean_motion_dot": 0.0001055,
        "meta_mean_motion_ddot": 0,
        "tle_line1": "1 57399U 23101A   25343.58294240  .00010550  00000+0  38855-3 0  9993",
        "tle_line2": "2 57399  97.2877  33.5022 0005642  89.5502 270.6384 15.27999542132678"
      },
      "geometry": {
        "type": "Point",
        "coordinates": [
          25.257837832031964,
          48.93182775693488
        ]
      }
    }
  ]
}